satname,norad_id,inclination_deg,eccentricity,mean_motion_rev_per_day,perigee_km,apogee_km,l1,l2
STARLINK-1475,45739,53.0493,0.0006229,15.76828868,335.24758210131677,343.6163295064571,1 45739U 20038K   25304.91668980  .00276959  00000+0  16330-2 0  9994,2 45739  53.0493 318.6258 0006229  12.5553  37.3144 15.76828868  5968
STARLINK-1480,45741,53.052,0.0001592,15.0640932,546.0804826848889,548.2855045708593,1 45741U 20038M   25304.78462288  .00005071  00000+0  35897-3 0  9990,2 45741  53.0520  95.2954 0001592  70.7997 289.3165 15.06409320296773
STARLINK-1500,45744,53.0405,0.0002906,15.27519558,481.23617382380144,485.22400037482475,1 45744U 20038Q   25304.76044134  .00026533  00000+0  98183-3 0  9990,2 45744  53.0405  74.1589 0002906 187.2964 172.7992 15.27519558297060
STARLINK-1504,45746,53.0286,0.0002136,15.40390985,443.49709456792516,446.41191925967814,1 45746U 20038S   25304.57041244  .00044619  00000+0  10908-2 0  9993,2 45746  53.0286  39.6318 0002136 217.0213 143.0644 15.40390985297521
STARLINK-1506,45747,53.0584,0.0002218,15.21313366,500.3520487485239,503.4040234185304,1 45747U 20038T   25304.78338375  .00012146  00000+0  54947-3 0  9993,2 45747  53.0584  76.5684 0002218 210.1381 149.9487 15.21313366297033
STARLINK-1464,45751,53.0544,0.0001757,15.06382418,546.04865155058,548.4822379696689,1 45751U 20038X   25304.78645411 -.00002172  00000+0 -12701-3 0  9992,2 45751  53.0544  75.2861 0001757  92.4633 267.6558 15.06382418297051
STARLINK-1477,45754,53.0538,9.48e-05,15.06612717,545.903226431752,547.216148923736,1 45754U 20038AA  25304.66825244  .00023007  00000+0  15495-2 0  9996,2 45754  53.0538  75.8156 0000948  63.2467 296.8619 15.06612717297030
STARLINK-1478,45755,53.0548,0.0001376,15.06409189,546.2304710335275,548.1363192062645,1 45755U 20038AB  25304.75326837  .00002200  00000+0  16651-3 0  9999,2 45755  53.0548  75.4348 0001376  88.6207 271.4939 15.06409189297031
STARLINK-1484,45756,53.0169,0.00019,15.60344205,385.3767296139831,387.9473532497268,1 45756U 20038AC  25304.51951359  .00098019  00000+0  11670-2 0  9995,2 45756  53.0169 342.1324 0001900 347.0185  13.0777 15.60344205298329
STARLINK-1493,45759,53.0556,0.0001495,15.06410464,546.1441526561366,548.2148222858914,1 45759U 20038AF  25304.74221083  .00002336  00000+0  17564-3 0  9993,2 45759  53.0556  75.4840 0001495  89.2122 270.9038 15.06410464297038
STARLINK-1494,45760,53.0544,0.0002197,15.5135297,411.28289561297424,414.2668222837956,1 45760U 20038AG  25304.72958139  .00045731  00000+0  76787-3 0  9990,2 45760  53.0544  60.5723 0002197  17.3542 342.7541 15.51352970297258
STARLINK-1502,45764,53.0545,0.0001333,15.06398759,546.2922119573741,548.1385108969298,1 45764U 20038AL  25304.77539264  .00001822  00000+0  14119-3 0  9997,2 45764  53.0545  75.3345 0001333  90.8072 269.3069 15.06398759297054
STARLINK-1470,45772,53.051,0.0003067,15.17753595,510.5181239013664,514.7449213131349,1 45772U 20038AU  25304.69548002  .00039299  00000+0  19277-2 0  9995,2 45772  53.0510  48.1498 0003067 238.3600 121.7095 15.17753595297420
STARLINK-1482,45773,53.0542,0.0001362,15.06422093,546.2006236514517,548.087070154148,1 45773U 20038AV  25304.67402067  .00005138  00000+0  36336-3 0  9995,2 45773  53.0542  55.7900 0001362  92.7878 267.3267 15.06422093297313
STARLINK-1485,45774,53.0363,0.0007447,16.16392355,224.44458978224793,234.28580355396662,1 45774U 20038AW  25304.57688775  .01609186  22451-2  11056-2 0  9999,2 45774  53.0363 343.4057 0007447  20.3934 339.7399 16.16392355298315
STARLINK-1496,45780,53.0542,0.0001377,15.06424053,546.1842295929764,548.091450283895,1 45780U 20038BC  25304.70719170  .00005473  00000+0  38577-3 0  9994,2 45780  53.0542  55.6415 0001377  84.7438 275.3708 15.06424053297306
STARLINK-1497,45781,53.0406,0.0006093,15.54025726,400.85324619235143,409.11916012772235,1 45781U 20038BD  25304.91668980  .00093704  00000+0  14123-2 0  9994,2 45781  53.0406 359.9201 0006093 287.4333 256.5246 15.54025726  5958
STARLINK-1510,45784,53.0331,0.0001657,15.69791835,358.37615492658824,360.60900536944973,1 45784U 20038BG  25304.91668980  .00252854  00000+0  20218-2 0  9992,2 45784  53.0331 336.0755 0001657  51.3221  29.8122 15.69791835  5998
STARLINK-1513,45786,53.0557,0.0001373,15.06398545,546.265166338032,548.166868276584,1 45786U 20038BJ  25304.67034058  .00002223  00000+0  16812-3 0  9999,2 45786  53.0557  55.8096 0001373  87.0196 273.0950 15.06398545297319
STARLINK-1522,46027,53.0548,0.0001366,15.06408004,546.2410276776018,548.1330262017627,1 46027U 20055A   25304.38560986  .00010233  00000+0  70472-3 0  9991,2 46027  53.0548 347.0867 0001366 104.0506 256.0635 15.06408004289399
STARLINK-1523,46028,53.0555,0.0001588,15.06394537,546.1285532872153,548.328049306906,1 46028U 20055B   25304.53304595 -.00002368  00000+0 -14016-3 0  9995,2 46028  53.0555 346.4235 0001588 102.2397 257.8769 15.06394537289431
STARLINK-1526,46029,53.0556,0.0001544,15.0641053,546.1100163584351,548.2485540273019,1 46029U 20055C   25304.52567957  .00010692  00000+0  73542-3 0  9994,2 46029  53.0556 346.4554 0001544  76.9614 283.1548 15.06410530289426
STARLINK-1555,46032,53.0544,0.0001362,15.06410123,546.2373043270618,548.1237608229349,1 46032U 20055F   25304.51093225  .00009044  00000+0  62506-3 0  9996,2 46032  53.0544 346.5227 0001362  86.2297 273.8848 15.06410123289421
STARLINK-1556,46033,53.0558,0.0001795,15.06392841,545.9903953244575,548.4766033337164,1 46033U 20055G   25304.82423625  .00005725  00000+0  40300-3 0  9992,2 46033  53.0558 345.1174 0001795  96.7789 263.3404 15.06392841289445
STARLINK-1557,46034,53.0553,0.000146,15.06390216,546.2304393839058,548.2526499189444,1 46034U 20055H   25304.49618628  .00004727  00000+0  33613-3 0  9995,2 46034  53.0553 346.5907 0001460  92.0636 268.0520 15.06390216289398
STARLINK-1558,46035,53.0559,0.0001395,15.06399358,546.2474391781943,548.1796119748287,1 46035U 20055J   25304.83529670  .00001392  00000+0  11232-3 0  9990,2 46035  53.0559 345.0673 0001395 110.1321 249.9818 15.06399358289472
STARLINK-1560,46036,53.0548,0.0001591,15.06395042,546.1249281626851,548.3285789090605,1 46036U 20055K   25304.82055002  .00006302  00000+0  44162-3 0  9997,2 46036  53.0548 345.1355 0001591 114.6539 245.4616 15.06395042289470
STARLINK-1567,46038,53.0555,0.0001714,15.06404956,546.0093664143451,548.3833706930855,1 46038U 20055M   25304.83160873  .00002283  00000+0  17210-3 0  9991,2 46038  53.0555 345.0810 0001714  89.3160 270.8025 15.06404956289460
